UNKNOWN                 
1 87159U          25351.45919852  .00001257  00000+0  14610-2 0  9997
2 87159  90.3478  69.5750 0105330 241.6008 117.4503 13.66075619557336
UNKNOWN                 
1 87163U          25355.36390463  .00002101  00000+0  65475-3 0  9992
2 87163  65.5987 215.0351 0642728  60.7493 305.6255 13.63976728578695
UNKNOWN                 
1 87164U          25356.56982170  .00005538  00000+0  11356-2 0  9993
2 87164  65.2051 299.1606 0099209  49.7211 311.2509 14.58468508637201
UNKNOWN                 
1 87204U          25355.04168989  .00001689  00000+0  67215-3 0  9993
2 87204  98.5358 215.6924 0045765 301.0966  58.5729 14.29368992626623
UNKNOWN                 
1 87211U          25350.25823939  .00002398  00000+0  66849-3 0  9992
2 87211  99.0856 350.3221 0053568 148.0777 229.8953 14.46497136708283
UNKNOWN                 
1 87214U          25352.24449436  .00000669  00000+0  63491-3 0  9991
2 87214 100.3307 351.4512 0073557 240.6999 118.6788 13.84104450601001
UNKNOWN                 
1 87237U          25352.66590523  .00000336  00000+0  28779-3 0  9997
2 87237  99.2560  48.1367 0102615 268.0800 247.1755 13.91758202612589
UNKNOWN                 
1 87239U          25354.94346751  .00005623  00000+0  13827-2 0  9995
2 87239  82.8742  75.9011 0017384  19.0437 341.1408 14.52078315629062
UNKNOWN                 
1 87245U          25355.47912359  .00002301  00000+0  49645-3 0  9992
2 87245  65.6423  24.4369 0428882 116.8473 316.4659 14.15895659615441
UNKNOWN                 
1 87271U          25355.34691318  .00004865  00000+0  91233-3 0  9993
2 87271  65.7537 213.1649 0419442  69.0091 295.5332 14.21761565613596
UNKNOWN                 
1 87280U          25355.87139052  .00000347  00000+0  65759-3 0  9998
2 87280  64.6141 212.7893 0128900 258.9665  99.6854 13.48562014535088
UNKNOWN                 
1 87293U          25354.77779184  .00002289  00000+0  47120-3 0  9995
2 87293  65.8958 123.8805 0426842 355.2970   4.4156 14.18070414615132
