CCSDS_OMM_VERS = 2.0
CREATION_DATE  = 
ORIGINATOR     = 

OBJECT_NAME    = UNKNOWN
OBJECT_ID      = 
CENTER_NAME    = EARTH
REF_FRAME      = TEME
TIME_SYSTEM    = UTC
MEAN_ELEMENT_THEORY = SGP/SGP4

EPOCH          = 2025-12-17T11:01:14.752128
MEAN_MOTION    = 13.66075619
ECCENTRICITY   = .010533
INCLINATION    = 90.3478
RA_OF_ASC_NODE = 69.5750
ARG_OF_PERICENTER = 241.6008
MEAN_ANOMALY   = 117.4503

EPHEMERIS_TYPE = 0
CLASSIFICATION_TYPE = U
NORAD_CAT_ID   = 87159
ELEMENT_SET_NO = 999
REV_AT_EPOCH   = 55733
BSTAR          = .1461E-2
MEAN_MOTION_DOT = .1257E-4
MEAN_MOTION_DDOT = 0

CCSDS_OMM_VERS = 2.0
CREATION_DATE  = 
ORIGINATOR     = 

OBJECT_NAME    = UNKNOWN
OBJECT_ID      = 
CENTER_NAME    = EARTH
REF_FRAME      = TEME
TIME_SYSTEM    = UTC
MEAN_ELEMENT_THEORY = SGP/SGP4

EPOCH          = 2025-12-21T08:44:01.360032
MEAN_MOTION    = 13.63976728
ECCENTRICITY   = .0642728
INCLINATION    = 65.5987
RA_OF_ASC_NODE = 215.0351
ARG_OF_PERICENTER = 60.7493
MEAN_ANOMALY   = 305.6255

EPHEMERIS_TYPE = 0
CLASSIFICATION_TYPE = U
NORAD_CAT_ID   = 87163
ELEMENT_SET_NO = 999
REV_AT_EPOCH   = 57869
BSTAR          = .65475E-3
MEAN_MOTION_DOT = .2101E-4
MEAN_MOTION_DDOT = 0

CCSDS_OMM_VERS = 2.0
CREATION_DATE  = 
ORIGINATOR     = 

OBJECT_NAME    = UNKNOWN
OBJECT_ID      = 
CENTER_NAME    = EARTH
REF_FRAME      = TEME
TIME_SYSTEM    = UTC
MEAN_ELEMENT_THEORY = SGP/SGP4

EPOCH          = 2025-12-22T13:40:32.594880
MEAN_MOTION    = 14.58468508
ECCENTRICITY   = .0099209
INCLINATION    = 65.2051
RA_OF_ASC_NODE = 299.1606
ARG_OF_PERICENTER = 49.7211
MEAN_ANOMALY   = 311.2509

EPHEMERIS_TYPE = 0
CLASSIFICATION_TYPE = U
NORAD_CAT_ID   = 87164
ELEMENT_SET_NO = 999
REV_AT_EPOCH   = 63720
BSTAR          = .11356E-2
MEAN_MOTION_DOT = .5538E-4
MEAN_MOTION_DDOT = 0

CCSDS_OMM_VERS = 2.0
CREATION_DATE  = 
ORIGINATOR     = 

OBJECT_NAME    = UNKNOWN
OBJECT_ID      = 
CENTER_NAME    = EARTH
REF_FRAME      = TEME
TIME_SYSTEM    = UTC
MEAN_ELEMENT_THEORY = SGP/SGP4

EPOCH          = 2025-12-21T01:00:02.006496
MEAN_MOTION    = 14.29368992
ECCENTRICITY   = .0045765
INCLINATION    = 98.5358
RA_OF_ASC_NODE = 215.6924
ARG_OF_PERICENTER = 301.0966
MEAN_ANOMALY   = 58.5729

EPHEMERIS_TYPE = 0
CLASSIFICATION_TYPE = U
NORAD_CAT_ID   = 87204
ELEMENT_SET_NO = 999
REV_AT_EPOCH   = 62662
BSTAR          = .67215E-3
MEAN_MOTION_DOT = .1689E-4
MEAN_MOTION_DDOT = 0

CCSDS_OMM_VERS = 2.0
CREATION_DATE  = 
ORIGINATOR     = 

OBJECT_NAME    = UNKNOWN
OBJECT_ID      = 
CENTER_NAME    = EARTH
REF_FRAME      = TEME
TIME_SYSTEM    = UTC
MEAN_ELEMENT_THEORY = SGP/SGP4

EPOCH          = 2025-12-16T06:11:51.883296
MEAN_MOTION    = 14.46497136
ECCENTRICITY   = .0053568
INCLINATION    = 99.0856
RA_OF_ASC_NODE = 350.3221
ARG_OF_PERICENTER = 148.0777
MEAN_ANOMALY   = 229.8953

EPHEMERIS_TYPE = 0
CLASSIFICATION_TYPE = U
NORAD_CAT_ID   = 87211
ELEMENT_SET_NO = 999
REV_AT_EPOCH   = 70828
BSTAR          = .66849E-3
MEAN_MOTION_DOT = .2398E-4
MEAN_MOTION_DDOT = 0

CCSDS_OMM_VERS = 2.0
CREATION_DATE  = 
ORIGINATOR     = 

OBJECT_NAME    = UNKNOWN
OBJECT_ID      = 
CENTER_NAME    = EARTH
REF_FRAME      = TEME
TIME_SYSTEM    = UTC
MEAN_ELEMENT_THEORY = SGP/SGP4

EPOCH          = 2025-12-18T05:52:04.312704
MEAN_MOTION    = 13.84104450
ECCENTRICITY   = .0073557
INCLINATION    = 100.3307
RA_OF_ASC_NODE = 351.4512
ARG_OF_PERICENTER = 240.6999
MEAN_ANOMALY   = 118.6788

EPHEMERIS_TYPE = 0
CLASSIFICATION_TYPE = U
NORAD_CAT_ID   = 87214
ELEMENT_SET_NO = 999
REV_AT_EPOCH   = 60100
BSTAR          = .63491E-3
MEAN_MOTION_DOT = .669E-5
MEAN_MOTION_DDOT = 0

CCSDS_OMM_VERS = 2.0
CREATION_DATE  = 
ORIGINATOR     = 

OBJECT_NAME    = UNKNOWN
OBJECT_ID      = 
CENTER_NAME    = EARTH
REF_FRAME      = TEME
TIME_SYSTEM    = UTC
MEAN_ELEMENT_THEORY = SGP/SGP4

EPOCH          = 2025-12-18T15:58:54.211872
MEAN_MOTION    = 13.91758202
ECCENTRICITY   = .0102615
INCLINATION    = 99.2560
RA_OF_ASC_NODE = 48.1367
ARG_OF_PERICENTER = 268.0800
MEAN_ANOMALY   = 247.1755

EPHEMERIS_TYPE = 0
CLASSIFICATION_TYPE = U
NORAD_CAT_ID   = 87237
ELEMENT_SET_NO = 999
REV_AT_EPOCH   = 61258
BSTAR          = .28779E-3
MEAN_MOTION_DOT = .336E-5
MEAN_MOTION_DDOT = 0

CCSDS_OMM_VERS = 2.0
CREATION_DATE  = 
ORIGINATOR     = 

OBJECT_NAME    = UNKNOWN
OBJECT_ID      = 
CENTER_NAME    = EARTH
REF_FRAME      = TEME
TIME_SYSTEM    = UTC
MEAN_ELEMENT_THEORY = SGP/SGP4

EPOCH          = 2025-12-20T22:38:35.592864
MEAN_MOTION    = 14.52078315
ECCENTRICITY   = .0017384
INCLINATION    = 82.8742
RA_OF_ASC_NODE = 75.9011
ARG_OF_PERICENTER = 19.0437
MEAN_ANOMALY   = 341.1408

EPHEMERIS_TYPE = 0
CLASSIFICATION_TYPE = U
NORAD_CAT_ID   = 87239
ELEMENT_SET_NO = 999
REV_AT_EPOCH   = 62906
BSTAR          = .13827E-2
MEAN_MOTION_DOT = .5623E-4
MEAN_MOTION_DDOT = 0

CCSDS_OMM_VERS = 2.0
CREATION_DATE  = 
ORIGINATOR     = 

OBJECT_NAME    = UNKNOWN
OBJECT_ID      = 
CENTER_NAME    = EARTH
REF_FRAME      = TEME
TIME_SYSTEM    = UTC
MEAN_ELEMENT_THEORY = SGP/SGP4

EPOCH          = 2025-12-21T11:29:56.278176
MEAN_MOTION    = 14.15895659
ECCENTRICITY   = .0428882
INCLINATION    = 65.6423
RA_OF_ASC_NODE = 24.4369
ARG_OF_PERICENTER = 116.8473
MEAN_ANOMALY   = 316.4659

EPHEMERIS_TYPE = 0
CLASSIFICATION_TYPE = U
NORAD_CAT_ID   = 87245
ELEMENT_SET_NO = 999
REV_AT_EPOCH   = 61544
BSTAR          = .49645E-3
MEAN_MOTION_DOT = .2301E-4
MEAN_MOTION_DDOT = 0

CCSDS_OMM_VERS = 2.0
CREATION_DATE  = 
ORIGINATOR     = 

OBJECT_NAME    = UNKNOWN
OBJECT_ID      = 
CENTER_NAME    = EARTH
REF_FRAME      = TEME
TIME_SYSTEM    = UTC
MEAN_ELEMENT_THEORY = SGP/SGP4

EPOCH          = 2025-12-21T08:19:33.298752
MEAN_MOTION    = 14.21761565
ECCENTRICITY   = .0419442
INCLINATION    = 65.7537
RA_OF_ASC_NODE = 213.1649
ARG_OF_PERICENTER = 69.0091
MEAN_ANOMALY   = 295.5332

EPHEMERIS_TYPE = 0
CLASSIFICATION_TYPE = U
NORAD_CAT_ID   = 87271
ELEMENT_SET_NO = 999
REV_AT_EPOCH   = 61359
BSTAR          = .91233E-3
MEAN_MOTION_DOT = .4865E-4
MEAN_MOTION_DDOT = 0

CCSDS_OMM_VERS = 2.0
CREATION_DATE  = 
ORIGINATOR     = 

OBJECT_NAME    = UNKNOWN
OBJECT_ID      = 
CENTER_NAME    = EARTH
REF_FRAME      = TEME
TIME_SYSTEM    = UTC
MEAN_ELEMENT_THEORY = SGP/SGP4

EPOCH          = 2025-12-21T20:54:48.140928
MEAN_MOTION    = 13.48562014
ECCENTRICITY   = .01289
INCLINATION    = 64.6141
RA_OF_ASC_NODE = 212.7893
ARG_OF_PERICENTER = 258.9665
MEAN_ANOMALY   = 99.6854

EPHEMERIS_TYPE = 0
CLASSIFICATION_TYPE = U
NORAD_CAT_ID   = 87280
ELEMENT_SET_NO = 999
REV_AT_EPOCH   = 53508
BSTAR          = .65759E-3
MEAN_MOTION_DOT = .347E-5
MEAN_MOTION_DDOT = 0

CCSDS_OMM_VERS = 2.0
CREATION_DATE  = 
ORIGINATOR     = 

OBJECT_NAME    = UNKNOWN
OBJECT_ID      = 
CENTER_NAME    = EARTH
REF_FRAME      = TEME
TIME_SYSTEM    = UTC
MEAN_ELEMENT_THEORY = SGP/SGP4

EPOCH          = 2025-12-20T18:40:01.214976
MEAN_MOTION    = 14.18070414
ECCENTRICITY   = .0426842
INCLINATION    = 65.8958
RA_OF_ASC_NODE = 123.8805
ARG_OF_PERICENTER = 355.2970
MEAN_ANOMALY   = 4.4156

EPHEMERIS_TYPE = 0
CLASSIFICATION_TYPE = U
NORAD_CAT_ID   = 87293
ELEMENT_SET_NO = 999
REV_AT_EPOCH   = 61513
BSTAR          = .4712E-3
MEAN_MOTION_DOT = .2289E-4
MEAN_MOTION_DDOT = 0

